OPTUS D2                
1 32252U 07044A   17345.86493341 -.00000190  00000-0  00000-0 0  9998
2 32252   0.0134  50.6361 0003573 210.1709 283.3304  1.00270758 37398
